NORAD_CAT_ID,OBJECT_NAME,OBJECT_TYPE,EPOCH,MEAN_MOTION,ECCENTRICITY,INCLINATION,RA_OF_ASC_NODE,ARG_OF_PERICENTER,MEAN_ANOMALY,BSTAR,MEAN_MOTION_DOT,MEAN_MOTION_DDOT,TLE_LINE0,TLE_LINE1,TLE_LINE2,SEMIMAJOR_AXIS,PERIOD,APOGEE,PERIGEE,DECAYED
37853,RAX-2,PAYLOAD,2021-04-20 14:34:05,15.05165418,0.016486400000000002,101.7167,352.0423,262.6645,95.5804,0.0001406,2.557e-05,0.0,0 RAX-2,1 37853U 11061D   21110.60700845  .00002557  00000-0  14060-3 0  9993,2 37853 101.7167 352.0423 0164864 262.6645  95.5804 15.05165418517022,6929.135,95.671,665.2360000000001,436.76300000000003,0.0
37853,RAX-2,PAYLOAD,2021-04-21 14:29:56,15.05170002,0.0164804,101.7169,353.551,259.7003,98.5592,0.00011792,2.117e-05,0.0,0 RAX-2,1 37853U 11061D   21111.60412212  .00002117  00000-0  11792-3 0  9993,2 37853 101.7169 353.5510 0164804 259.7003  98.5592 15.05170002517174,6929.121,95.67,665.181,436.791,0.0
37853,RAX-2,PAYLOAD,2021-04-22 03:15:43,15.05172549,0.0164768,101.71700000000001,354.3558,258.1156,100.1539,0.00011037,1.9699999999999998e-05,0.0,0 RAX-2,1 37853U 11061D   21112.13591512  .00001970  00000-0  11037-3 0  9991,2 37853 101.7170 354.3558 0164768 258.1156 100.1539 15.05172549517739,6929.113,95.67,665.148,436.80800000000005,0.0
37853,RAX-2,PAYLOAD,2021-04-22 11:14:19,15.05173299,0.016475200000000002,101.71700000000001,354.8587,257.1253,101.15100000000001,9.7256e-05,1.716e-05,0.0,0 RAX-2,1 37853U 11061D   21112.46828567  .00001716  00000-0  97256-4 0  9996,2 37853 101.7170 354.8587 0164752 257.1253 101.1510 15.05173299517302,6929.111,95.67,665.1339999999999,436.81699999999995,0.0
37853,RAX-2,PAYLOAD,2021-04-22 14:25:46,15.0517376,0.016474700000000002,101.7169,355.0599,256.7309,101.5483,9.4013e-05,1.653e-05,0.0,0 RAX-2,1 37853U 11061D   21112.60123383  .00001653  00000-0  94013-4 0  9994,2 37853 101.7169 355.0599 0164747 256.7309 101.5483 15.05173760517325,6929.109,95.67,665.1289999999998,436.819,0.0
37853,RAX-2,PAYLOAD,2021-04-23 04:47:16,15.05175727,0.016471700000000002,101.7169,355.9652,254.947,103.3464,8.0676e-05,1.394e-05,0.0,0 RAX-2,1 37853U 11061D   21113.19950015  .00001394  00000-0  80676-4 0  9991,2 37853 101.7169 355.9652 0164717 254.9470 103.3464 15.05175727517896,6929.103,95.67,665.102,436.834,0.0
37853,RAX-2,PAYLOAD,2021-04-23 17:33:03,15.05177525,0.0164703,101.7169,356.77,253.364,104.9432,7.5172e-05,1.288e-05,0.0,0 RAX-2,1 37853U 11061D   21113.73129205  .00001288  00000-0  75172-4 0  9997,2 37853 101.7169 356.7700 0164703 253.3640 104.9432 15.05177525517492,6929.098000000001,95.67,665.087,436.838,0.0
37853,RAX-2,PAYLOAD,2021-04-24 12:41:43,15.051790700000002,0.016478,101.7167,357.9767,251.0097,107.3198,8.1144e-05,1.404e-05,0.0,0 RAX-2,1 37853U 11061D   21114.52897993  .00001404  00000-0  81144-4 0  9997,2 37853 101.7167 357.9767 0164780 251.0097 107.3198 15.05179070517619,6929.093000000003,95.67,665.1360000000002,436.78,0.0
37853,RAX-2,PAYLOAD,2021-04-24 14:17:27,15.05179302,0.0164781,101.7167,358.0773,250.8126,107.5189,8.0779e-05,1.397e-05,0.0,0 RAX-2,1 37853U 11061D   21114.59545383  .00001397  00000-0  80779-4 0  9991,2 37853 101.7167 358.0773 0164781 250.8126 107.5189 15.05179302518104,6929.092,95.67,665.1360000000002,436.779,0.0
37853,RAX-2,PAYLOAD,2021-04-24 22:16:03,15.05181166,0.0164769,101.7166,358.5801,249.8277,108.5146,8.4463e-05,1.468e-05,0.0,0 RAX-2,1 37853U 11061D   21114.92782291  .00001468  00000-0  84463-4 0  9992,2 37853 101.7166 358.5801 0164769 249.8277 108.5146 15.05181166517677,6929.0869999999995,95.67,665.1210000000002,436.782,0.0
37853,RAX-2,PAYLOAD,2021-04-25 12:37:33,15.05183708,0.0164757,101.7165,359.4853,248.0551,110.3079,8.4547e-05,1.47e-05,0.0,0 RAX-2,1 37853U 11061D   21115.52608711  .00001470  00000-0  84547-4 0  9999,2 37853 101.7165 359.4853 0164757 248.0551 110.3079 15.05183708517766,6929.079000000002,95.669,665.105,436.782,0.0
37853,RAX-2,PAYLOAD,2021-04-25 15:49:00,15.05184154,0.0164755,101.7164,359.6864,247.66099999999997,110.7068,8.425799999999999e-05,1.465e-05,0.0,0 RAX-2,1 37853U 11061D   21115.65903473  .00001465  00000-0  84258-4 0  9999,2 37853 101.7164 359.6864 0164755 247.6610 110.7068 15.05184154518262,6929.0769999999975,95.669,665.102,436.782,0.0
37853,RAX-2,PAYLOAD,2021-04-26 09:21:57,15.051872,0.0164741,101.7163,0.7927,245.4911,112.9047,8.5689e-05,1.493e-05,0.0,0 RAX-2,1 37853U 11061D   21116.39024565  .00001493  00000-0  85689-4 0  9997,2 37853 101.7163   0.7927 0164741 245.4911 112.9047 15.05187200517894,6929.068,95.669,665.0830000000002,436.783,0.0
37853,RAX-2,PAYLOAD,2021-04-26 22:07:43,15.05189557,0.016472999999999998,101.7161,1.5972,243.9128,114.5051,8.904e-05,1.558e-05,0.0,0 RAX-2,1 37853U 11061D   21116.92203492  .00001558  00000-0  89040-4 0  9991,2 37853 101.7161   1.5972 0164730 243.9128 114.5051 15.05189557518455,6929.061,95.669,665.068,436.783,0.0
37853,RAX-2,PAYLOAD,2021-04-27 09:17:47,15.05190231,0.0164728,101.71600000000001,2.3013,242.5331,115.9049,8.0937e-05,1.4000000000000001e-05,0.0,0 RAX-2,1 37853U 11061D   21117.38735085  .00001400  00000-0  80937-4 0  9992,2 37853 101.7160   2.3013 0164728 242.5331 115.9049 15.05190231518045,6929.059,95.669,665.065,436.783,0.0
37853,RAX-2,PAYLOAD,2021-04-28 04:26:26,15.05192955,0.0164724,101.7158,3.5081,240.1666,118.3084,8.201e-05,1.421e-05,0.0,0 RAX-2,1 37853U 11061D   21118.18503432  .00001421  00000-0  82010-4 0  9997,2 37853 101.7158   3.5081 0164724 240.1666 118.3084 15.05192955518648,6929.05,95.669,665.054,436.777,0.0
37853,RAX-2,PAYLOAD,2021-04-28 06:02:10,15.05193186,0.0164723,101.7158,3.6087,239.9693,118.509,8.232e-05,1.428e-05,0.0,0 RAX-2,1 37853U 11061D   21118.25150792  .00001428  00000-0  82320-4 0  9993,2 37853 101.7158   3.6087 0164723 239.9693 118.5090 15.05193186518174,6929.05,95.669,665.052,436.777,0.0
37853,RAX-2,PAYLOAD,2021-04-29 09:09:26,15.05195863,0.0164725,101.7155,5.3184,236.6195,121.9162,7.7089e-05,1.326e-05,0.0,0 RAX-2,1 37853U 11061D   21119.38155911  .00001326  00000-0  77089-4 0  9999,2 37853 101.7155   5.3184 0164725 236.6195 121.9162 15.05195863518342,6929.0419999999995,95.669,665.045,436.76800000000003,0.0
37853,RAX-2,PAYLOAD,2021-04-29 21:55:13,15.05197422,0.0164715,101.7154,6.1229,235.0387,123.5262,7.7974e-05,1.344e-05,0.0,0 RAX-2,1 37853U 11061D   21119.91334751  .00001344  00000-0  77974-4 0  9992,2 37853 101.7154   6.1229 0164715 235.0387 123.5262 15.05197422518426,6929.0369999999975,95.669,665.033,436.77,0.0
37853,RAX-2,PAYLOAD,2021-04-30 05:53:49,15.05198006,0.0164709,101.7153,6.6258,234.0505,124.5333,7.521e-05,1.29e-05,0.0,0 RAX-2,1 37853U 11061D   21120.24571527  .00001290  00000-0  75210-4 0  9995,2 37853 101.7153   6.6258 0164709 234.0505 124.5333 15.05198006518470,6929.035,95.66799999999999,665.0269999999998,436.773,0.0
37853,RAX-2,PAYLOAD,2021-04-30 15:28:09,15.05199052,0.016471299999999998,101.7152,7.2291,232.8705,125.7363,7.5133e-05,1.289e-05,0.0,0 RAX-2,1 37853U 11061D   21120.64455626  .00001289  00000-0  75133-4 0  9992,2 37853 101.7152   7.2291 0164713 232.8705 125.7363 15.05199052519015,6929.031999999997,95.66799999999999,665.0269999999998,436.767,0.0
37853,RAX-2,PAYLOAD,2021-05-01 13:48:15,15.05202189,0.0164709,101.7151,8.6371,230.1095,128.5537,8.1612e-05,1.415e-05,0.0,0 RAX-2,1 37853U 11061D   21121.57518445  .00001415  00000-0  81612-4 0  9994,2 37853 101.7151   8.6371 0164709 230.1095 128.5537 15.05202189518677,6929.022,95.66799999999999,665.0139999999999,436.76,0.0
37853,RAX-2,PAYLOAD,2021-05-01 15:23:59,15.0520241,0.016471,101.7151,8.7376,229.9127,128.7547,8.196e-05,1.421e-05,0.0,0 RAX-2,1 37853U 11061D   21121.64165785  .00001421  00000-0  81960-4 0  9990,2 37853 101.7151   8.7376 0164710 229.9127 128.7547 15.05202410518688,6929.021,95.66799999999999,665.0139999999999,436.759,0.0
37853,RAX-2,PAYLOAD,2021-05-02 04:09:45,15.05203988,0.016471,101.7151,9.5422,228.3328,130.3687,8.413399999999999e-05,1.464e-05,0.0,0 RAX-2,1 37853U 11061D   21122.17344508  .00001464  00000-0  84134-4 0  9994,2 37853 101.7151   9.5422 0164710 228.3328 130.3687 15.05203988519243,6929.017,95.66799999999999,665.0089999999999,436.754,0.0
37853,RAX-2,PAYLOAD,2021-05-02 15:19:48,15.05205546,0.0164715,101.715,10.2461,226.956,131.776,8.726799999999999e-05,1.525e-05,0.0,0 RAX-2,1 37853U 11061D   21122.63875839  .00001525  00000-0  87268-4 0  9990,2 37853 101.7150  10.2461 0164715 226.9560 131.7760 15.05205546518834,6929.012,95.66799999999999,665.008,436.746,0.0
37853,RAX-2,PAYLOAD,2021-05-02 21:42:41,15.05206276,0.016471700000000002,101.715,10.6484,226.1654,132.5844,8.720200000000001e-05,1.523e-05,0.0,0 RAX-2,1 37853U 11061D   21122.90465152  .00001523  00000-0  87202-4 0  9999,2 37853 101.7150  10.6484 0164717 226.1654 132.5844 15.05206276518878,6929.01,95.66799999999999,665.007,436.74199999999996,0.0
37853,RAX-2,PAYLOAD,2021-05-03 05:41:18,15.05207306,0.0164723,101.715,11.1511,225.1755,133.5971,8.8364e-05,1.546e-05,0.0,0 RAX-2,1 37853U 11061D   21123.23701789  .00001546  00000-0  88364-4 0  9990,2 37853 101.7150  11.1511 0164723 225.1755 133.5971 15.05207306519400,6929.0059999999985,95.66799999999999,665.008,436.735,0.0
37853,RAX-2,PAYLOAD,2021-05-03 15:15:38,15.05208309,0.0164728,101.715,11.7545,223.9916,134.8088,8.7333e-05,1.526e-05,0.0,0 RAX-2,1 37853U 11061D   21123.63585731  .00001526  00000-0  87333-4 0  9994,2 37853 101.7150  11.7545 0164728 223.9916 134.8088 15.05208309518982,6929.003000000002,95.66799999999999,665.008,436.728,0.0
37853,RAX-2,PAYLOAD,2021-05-04 10:24:17,15.0521045,0.016473500000000002,101.715,12.9613,221.6248,137.2329,8.6137e-05,1.503e-05,0.0,0 RAX-2,1 37853U 11061D   21124.43353557  .00001503  00000-0  86137-4 0  9998,2 37853 101.7150  12.9613 0164735 221.6248 137.2329 15.05210450519584,6928.9969999999985,95.66799999999999,665.007,436.717,0.0
